[{"OBJECT_NAME":"JILIN-1 KUANFU 01C","OBJECT_ID":"2022-048A","EPOCH":"2026-03-09T22:44:12.026688","MEAN_MOTION":15.09601076,"ECCENTRICITY":0.00140886,"INCLINATION":97.5312,"RA_OF_ASC_NODE":147.8831,"ARG_OF_PERICENTER":308.8335,"MEAN_ANOMALY":51.1636,"EPHEMERIS_TYPE":0,"CLASSIFICATION_TYPE":"U","NORAD_CAT_ID":52443,"ELEMENT_SET_NO":999,"REV_AT_EPOCH":21222,"BSTAR":0.00028577595,"MEAN_MOTION_DOT":4.539e-5,"MEAN_MOTION_DDOT":0},{"OBJECT_NAME":"FREGAT DEB","OBJECT_ID":"2011-037DX","EPOCH":"2026-03-08T04:39:11.830752","MEAN_MOTION":12.08240486,"ECCENTRICITY":0.15315601,"INCLINATION":51.4339,"RA_OF_ASC_NODE":136.4245,"ARG_OF_PERICENTER":350.0856,"MEAN_ANOMALY":7.269,"EPHEMERIS_TYPE":0,"CLASSIFICATION_TYPE":"U","NORAD_CAT_ID":45902,"ELEMENT_SET_NO":999,"REV_AT_EPOCH":23963,"BSTAR":0.003151211,"MEAN_MOTION_DOT":0.00019658,"MEAN_MOTION_DDOT":0}]
